MEAN_MOTION;ECCENTRICITY;INCLINATION;RA_OF_ASC_NODE;ARG_OF_PERICENTER;MEAN_ANOMALY;BSTAR;MEAN_MOTION_DOT;MEAN_MOTION_DDOT;TYPE
14.75526907;0.0082347;64.5563;339.3076;274.5698;84.6002;1.5809E-5;-3.7E-7;0;Amateur
14.75526994;0.0082342;64.5563;338.4788;274.5207;84.6492;1.6679E-5;-3.0E-7;0;Amateur
14.75527196;0.0082351;64.5562;336.1996;274.3821;84.7875;1.7091E-5;-2.7E-7;0;Amateur
14.75527472;0.0082345;64.556;333.2987;274.2;84.9695;1.8047E-5;-2.0E-7;0;Amateur
14.75527605;0.0082341;64.5559;332.0555;274.1258;85.0437;1.913E-5;-1.3E-7;0;Amateur
14.75527718;0.008234;64.5559;330.8122;274.0451;85.1243;1.9208E-5;-1.2E-7;0;Amateur
14.7552782;0.0082341;64.5558;329.569;273.9669;85.2024;1.9751E-5;-8.0E-8;0;Amateur
14.75527954;0.0082347;64.5557;327.9113;273.8618;85.3072;1.938E-5;-1.1E-7;0;Amateur
14.75528227;0.0082339;64.5556;324.8033;273.6716;85.4973;1.9379E-5;-1.1E-7;0;Amateur
14.75528526;0.008235;64.5554;321.4879;273.4616;85.707;1.8787E-5;-1.5E-7;0;Amateur
14.75528566;0.0082353;64.5554;321.0735;273.4392;85.7293;1.9254E-5;-1.2E-7;0;Amateur
14.75528835;0.0082349;64.5553;318.1726;273.2568;85.9116;1.8979E-5;-1.4E-7;0;Amateur
14.75528884;0.0082349;64.5552;317.9654;273.2477;85.9207;1.9909E-5;-7.0E-8;0;Amateur
14.75529012;0.0082365;64.5551;315.0646;273.0641;86.1039;1.6389E-5;-3.2E-7;0;Amateur
14.75529027;0.0082366;64.5551;314.8574;273.0517;86.1163;1.6569E-5;-3.1E-7;0;Amateur
14.75529214;0.0082374;64.5549;311.9565;272.8648;86.3029;1.5111E-5;-4.2E-7;0;Amateur
14.7552927;0.0082375;64.5549;311.1276;272.8181;86.3495;1.5022E-5;-4.2E-7;0;Amateur
14.75529463;0.0082375;64.5548;308.8483;272.6722;86.4954;1.5702E-5;-3.7E-7;0;Amateur
14.75529644;0.0082381;64.5546;305.9473;272.4931;86.6742;1.5022E-5;-4.2E-7;0;Amateur
14.75529629;0.0082381;64.5546;305.7401;272.481;86.6863;1.4677E-5;-4.5E-7;0;Amateur
14.75529751;0.0082381;64.5545;304.4968;272.404;86.7633;1.5477E-5;-3.9E-7;0;Amateur
14.75529821;0.0082381;64.5544;302.839;272.2976;86.8696;1.4871E-5;-4.3E-7;0;Amateur
14.75529872;0.0082379;64.5544;302.6318;272.2863;86.8808;1.5852E-5;-3.6E-7;0;Amateur
14.75530081;0.0082378;64.5543;300.5597;272.1576;87.0095;1.676E-5;-3.0E-7;0;Amateur
14.75530126;0.008238;64.5543;299.7308;272.1053;87.0617;1.7121E-5;-2.7E-7;0;Amateur
14.75530139;0.0082378;64.5542;299.5235;272.0928;87.0742;1.722E-5;-2.6E-7;0;Amateur
14.75530276;0.0082377;64.5542;297.6586;271.9739;87.1931;1.7258E-5;-2.6E-7;0;Amateur
14.75530335;0.0082377;64.5541;296.6224;271.9093;87.2577;1.74E-5;-2.5E-7;0;Amateur
14.75530546;0.0082374;64.5541;293.5142;271.7137;87.4532;1.782E-5;-2.2E-7;0;Amateur
14.75530574;0.008238;64.554;293.0997;271.697;87.4697;1.784E-5;-2.2E-7;0;Amateur
14.75530838;0.0082389;64.5539;290.4057;271.532;87.6346;1.8911E-5;-1.4E-7;0;Amateur
14.75530874;0.008239;64.5539;289.9913;271.5071;87.6595;1.8882E-5;-1.4E-7;0;Amateur
14.7553113;0.0082388;64.5539;287.2974;271.3374;87.8292;1.9548E-5;-1.0E-7;0;Amateur
14.75531165;0.0082391;64.5539;286.6757;271.2981;87.8683;1.8773E-5;-1.5E-7;0;Amateur
14.7553128;0.0082391;64.5538;285.2252;271.2011;87.9653;1.8052E-5;-2.0E-7;0;Amateur
14.75531308;0.0082393;64.5538;284.3963;271.1519;88.0145;1.7626E-5;-2.3E-7;0;Amateur
14.75531618;0.0082396;64.5538;281.288;270.9464;88.2199;1.7619E-5;-2.3E-7;0;Amateur
14.75531618;0.0082396;64.5538;281.288;270.9464;88.2199;1.7619E-5;-2.3E-7;0;Amateur
14.75531905;0.0082397;64.5538;278.3869;270.7677;88.3985;1.8063E-5;-2.0E-7;0;Amateur
14.75532188;0.0082399;64.5538;276.3147;270.6381;88.528;1.8941E-5;-1.4E-7;0;Amateur
14.75532217;0.0082399;64.5538;276.1075;270.6216;88.5446;1.9015E-5;-1.3E-7;0;Amateur
14.75532311;0.0082398;64.5538;275.0713;270.5693;88.5968;1.9874E-5;-7.0E-8;0;Amateur
14.7553247;0.0082391;64.5537;273.2063;270.4537;88.7125;1.914E-5;-1.2E-7;0;Amateur
14.75532499;0.0082392;64.5538;272.9991;270.4377;88.7284;1.9314E-5;-1.1E-7;0;Amateur
14.75532564;0.0082391;64.5537;272.3774;270.4007;88.7655;2.0107E-5;-6.0E-8;0;Amateur
14.75532811;0.0082393;64.5537;269.269;270.2092;88.957;1.9115E-5;-1.3E-7;0;Amateur
14.75533189;0.0082405;64.5538;266.1607;270.0103;89.1557;2.0445E-5;-3.0E-8;0;Amateur
14.75533617;0.0082406;64.5538;263.0523;269.8161;89.3498;2.375E-5;2.1E-7;0;Amateur
14.75533923;0.0082404;64.5539;260.9801;269.6837;89.4823;2.532E-5;3.2E-7;0;Amateur
14.75534247;0.0082406;64.554;259.1151;269.5719;89.5941;2.8599E-5;5.6E-7;0;Amateur
14.75534478;0.0082405;64.5541;256.8357;269.4276;89.7383;2.7959E-5;5.1E-7;0;Amateur
14.75534581;0.0082407;64.5541;256.0068;269.376;89.7899;2.7874E-5;5.1E-7;0;Amateur
14.75534859;0.0082406;64.5542;253.7274;269.2334;89.9325;2.7505E-5;4.8E-7;0;Amateur
14.75534997;0.0082406;64.5543;252.8985;269.1822;89.9838;2.8016E-5;5.2E-7;0;Amateur
14.75535182;0.0082401;64.5543;250.8264;269.0514;90.1146;2.5991E-5;3.7E-7;0;Amateur
14.7553543;0.0082401;64.5545;248.7542;268.9217;90.2444;2.46E-5;2.7E-7;0;Amateur
14.75535494;0.00824;64.5545;248.1326;268.8862;90.2799;2.4704E-5;2.8E-7;0;Amateur
14.75535806;0.0082392;64.5546;245.0245;268.6959;90.4704;2.24E-5;1.1E-7;0;Amateur
14.7553609;0.0082389;64.5547;241.7091;268.493;90.6734;1.9519E-5;-1.0E-7;0;Amateur
14.75536374;0.0082389;64.5547;238.8082;268.3096;90.8568;1.8466E-5;-1.7E-7;0;Amateur
14.75536667;0.008239;64.5547;235.7001;268.1179;91.0485;1.8246E-5;-1.9E-7;0;Amateur
14.75536864;0.0082388;64.5548;233.628;267.9857;91.1809;1.7919E-5;-2.1E-7;0;Amateur
14.7553691;0.0082389;64.5548;233.0065;267.9524;91.2142;1.8434E-5;-1.8E-7;0;Amateur
14.75537159;0.008239;64.5549;230.52;267.7981;91.3686;1.8862E-5;-1.4E-7;0;Amateur
14.75537193;0.0082391;64.5549;229.6912;267.7502;91.4165;1.8961E-5;-1.4E-7;0;Amateur
14.75537407;0.0082397;64.555;227.4119;267.6017;91.565;1.9456E-5;-1.0E-7;0;Amateur
14.75537459;0.0082391;64.555;226.9974;267.5697;91.597;2.0122E-5;-5.0E-8;0;Amateur
14.75537702;0.0082391;64.5551;224.3038;267.401;91.7659;2.041E-5;-3.0E-8;0;Amateur
14.75537741;0.0082378;64.555;223.6821;267.3618;91.8053;2.0477E-5;-3.0E-8;0;Amateur
14.75537976;0.0082382;64.5551;221.1957;267.2083;91.9588;2.0746E-5;-1.0E-8;0;Amateur
14.75537993;0.0082381;64.5551;220.9885;267.1972;91.9699;2.0832E-5;0;0;Amateur
14.75538087;0.0082377;64.5551;220.1597;267.1458;92.0214;2.0777E-5;-1.0E-8;0;Amateur
14.75538306;0.0082378;64.5552;218.5021;267.039;92.1283;2.165E-5;6.0E-8;0;Amateur
14.75538554;0.0082376;64.5552;215.6013;266.8586;92.3089;2.0404E-5;-3.0E-8;0;Amateur
14.75538587;0.0082378;64.5552;215.1869;266.8338;92.3337;2.0707E-5;-1.0E-8;0;Amateur
14.75538703;0.0082375;64.5552;214.1509;266.7732;92.3944;2.062E-5;-2.0E-8;0;Amateur
14.75538844;0.0082378;64.5552;212.0789;266.6342;92.5334;1.9127E-5;-1.3E-7;0;Amateur
14.75538888;0.0082383;64.5552;211.4573;266.6101;92.5575;1.8799E-5;-1.5E-7;0;Amateur
14.75539138;0.008238;64.5551;208.3494;266.4132;92.7546;1.6927E-5;-2.8E-7;0;Amateur
14.75539511;0.0082386;64.5551;205.0343;266.2109;92.957;1.7878E-5;-2.2E-7;0;Amateur
14.75539721;0.0082375;64.555;202.3407;266.0452;93.123;1.7676E-5;-2.3E-7;0;Amateur
14.75539852;0.0082373;64.5549;200.8903;265.9535;93.2149;1.7619E-5;-2.3E-7;0;Amateur
14.75539952;0.0082367;64.5549;199.647;265.8793;93.2892;1.8017E-5;-2.1E-7;0;Amateur
14.75540136;0.0082364;64.5548;197.7822;265.7608;93.4079;1.8647E-5;-1.6E-7;0;Amateur
14.75540215;0.008236;64.5548;196.7462;265.6991;93.4697;1.9175E-5;-1.2E-7;0;Amateur
14.7554058;0.0082362;64.5547;194.2597;265.5448;93.6241;2.1877E-5;7.0E-8;0;Amateur
14.75540615;0.0082359;64.5547;193.638;265.5091;93.66;2.2108E-5;9.0E-8;0;Amateur
14.75540832;0.0082344;64.5546;190.7372;265.33;93.8394;2.1806E-5;7.0E-8;0;Amateur
14.7554087;0.0082342;64.5545;190.3228;265.304;93.8655;2.1895E-5;7.0E-8;0;Amateur
14.75541172;0.0082339;64.5545;187.6292;265.1389;94.0308;2.2828E-5;1.4E-7;0;Amateur
14.755412;0.0082336;64.5545;187.422;265.1274;94.0424;2.299E-5;1.5E-7;0;Amateur
14.75541559;0.0082327;64.5544;183.8994;264.9137;94.2565;2.2082E-5;9.0E-8;0;Amateur
14.75541768;0.0082314;64.5543;181.6202;264.7639;94.4066;2.1387E-5;4.0E-8;0;Amateur
14.75541996;0.0082307;64.5542;179.5481;264.6321;94.5387;2.0366E-5;-4.0E-8;0;Amateur
14.75542107;0.0082307;64.5542;178.3048;264.5575;94.6134;2.0485E-5;-3.0E-8;0;Amateur
14.75542314;0.0082308;64.5541;176.4399;264.4394;94.7317;1.9501E-5;-1.0E-7;0;Amateur
14.7554257;0.0082301;64.5539;173.3318;264.2479;94.9236;1.7447E-5;-2.5E-7;0;Amateur
14.75542743;0.0082298;64.5539;172.0885;264.1748;94.9968;1.9186E-5;-1.2E-7;0;Amateur
14.75542928;0.0082291;64.5537;169.3947;264.006;95.166;1.7326E-5;-2.6E-7;0;Amateur
14.75542976;0.0082292;64.5537;168.7731;263.9717;95.2003;1.681E-5;-2.9E-7;0;Amateur
14.75543194;0.0082276;64.5535;166.2866;263.8106;95.3618;1.7219E-5;-2.6E-7;0;Amateur
14.75543663;0.0082272;64.5534;163.3855;263.6244;95.5485;2.1946E-5;8.0E-8;0;Amateur
14.75543767;0.0082266;64.5533;161.1062;263.4771;95.6961;1.9053E-5;-1.3E-7;0;Amateur
14.75543922;0.008226;64.5532;160.07;263.4193;95.754;2.0833E-5;0;0;Amateur
14.75544224;0.0082254;64.5532;157.9978;263.2837;95.89;2.2702E-5;1.3E-7;0;Amateur
14.75544787;0.0082242;64.5532;156.9617;263.2218;95.9521;3.3523E-5;9.1E-7;0;Amateur
14.75544805;0.0082224;64.5532;154.4751;263.0637;96.1107;2.7378E-5;4.7E-7;0;Amateur
14.75545069;0.0082211;64.5532;150.9524;262.8501;96.3249;2.3441E-5;1.9E-7;0;Amateur
14.75545429;0.0082198;64.5532;147.6369;262.647;96.5285;2.1491E-5;5.0E-8;0;Amateur
14.75545685;0.0082185;64.5532;144.943;262.4812;96.6949;1.9712E-5;-8.0E-8;0;Amateur
14.75545821;0.0082176;64.5532;143.2852;262.3767;96.7996;1.7548E-5;-2.4E-7;0;Amateur
14.75545946;0.008217;64.5532;142.0418;262.2998;96.8768;1.7457E-5;-2.5E-7;0;Amateur
14.75546274;0.0082148;64.5532;138.9335;262.1077;97.0695;1.7102E-5;-2.7E-7;0;Amateur
14.75546304;0.0082145;64.5532;138.5191;262.0807;97.0966;1.6411E-5;-3.2E-7;0;Amateur
14.75546475;0.008212;64.5532;135.8252;261.9064;97.2716;1.467E-5;-4.5E-7;0;Amateur
14.75546746;0.0082081;64.5533;132.5098;261.7125;97.4663;1.4054E-5;-4.9E-7;0;Amateur
14.75546746;0.0082081;64.5533;132.5098;261.7125;97.4663;1.4054E-5;-4.9E-7;0;Amateur
14.75546961;0.0082087;64.5533;129.8159;261.546;97.6332;1.4667E-5;-4.5E-7;0;Amateur
14.75547124;0.008207;64.5534;127.5365;261.4036;97.7762;1.4753E-5;-4.4E-7;0;Amateur
